GOES 18                 
1 51850U 22021A   23102.55083483  .00000093  00000+0  00000+0 0  9990
2 51850   0.0217  37.2150 0000475 339.3902 245.1769  1.00270983  4136
CHINASAT 6D             
1 52255U 22038A   23102.57668894 -.00000357  00000+0  00000+0 0  9999
2 52255   0.0207 265.4098 0001653  89.8337 177.9528  1.00272178  3793
NILESAT 301             
1 52817U 22061A   23102.12275146 -.00000059  00000+0  00000+0 0  9993
2 52817   0.0540  28.8171 0005986 346.0135 222.4179  1.00272020  3083
CMS-02 (GSAT 24)        
1 52903U 22067A   23102.53174321 -.00000168  00000+0  00000+0 0  9994
2 52903   0.0137 152.9428 0006813 284.0580  37.8689  1.00269880  2971
MEASAT 3D               
1 52904U 22067B   23102.59594764 -.00000246  00000+0  00000+0 0  9995
2 52904   0.0396 357.8952 0002563 356.5849 152.0966  1.00271924  3003
SES-22                  
1 52933U 22071A   23102.52827385  .00000085  00000+0  00000+0 0  9993
2 52933   0.0139 251.8029 0001876 123.9443 239.9026  1.00269935  2897
WFOV (USA 332)          
1 52940U 22073A   23102.62420690 -.00000366  00000+0  00000+0 0  9995
2 52940   0.7115  94.5968 0001737  15.2061  74.7513  1.00268965  2725
TIANLIAN 2-03           
1 53100U 22078A   23102.12632522  .00000068  00000+0  00000+0 0  9991
2 53100   2.3363 282.1386 0002882 148.8851 185.0403  1.00271418  2897
SBIRS GEO-6 (USA 336)   
1 53355U 22092A   23102.47706240  .00000109  00000+0  00000+0 0  9992
2 53355   6.0816 311.4022 0007968 147.4925 128.2529  1.00272185  2589
EUTELSAT KONNECT VHTS   
1 53765U 22110A   23102.12475625  .00000015  00000+0  00000+0 0  9996
2 53765   0.0275 267.4177 0003640 136.4136 203.8154  1.00270953  2139
CHINASAT 1E (ZX 1E)     
1 53813U 22112A   23101.74073888 -.00000150  00000+0  00000+0 0  9995
2 53813   0.9866 278.3781 0003349 104.1995 165.1784  1.00270661  2181
SES-20                  
1 53960U 22123A   23102.59106052 -.00000104  00000+0  00000+0 0  9993
2 53960   0.0468 121.8677 0001412 299.7623 248.5764  1.00271587  1896
SES-21                  
1 53961U 22123B   23102.55755007  .00000066  00000+0  00000+0 0  9996
2 53961   0.0193 106.6090 0000951 266.6082 256.9899  1.00270621  1914
GALAXY 33 (G-33)        
1 54026U 22128A   23102.52827385  .00000076  00000+0  00000+0 0  9991
2 54026   0.0124 211.2393 0002031 183.7743 222.6297  1.00270055  2109
GALAXY 34 (G-34)        
1 54027U 22128B   23101.80357965  .00000059  00000+0  00000+0 0  9995
2 54027   0.0147 243.0873 0002819 188.9203 288.0251  1.00272344  2269
ANGOSAT 2               
1 54033U 22131A   23102.12876583  .00000134  00000+0  00000+0 0  9998
2 54033   0.0113 199.4707 0000500 260.0891 169.8371  1.00270783  1824
EUTELSAT HOTBIRD 13F    
1 54048U 22134A   23102.12432043 -.00000002  00000+0  00000+0 0  9991
2 54048   0.0717 297.4314 0001336  62.5635 245.2893  1.00270489  1799
CHINASAT 19 (ZX 19)     
1 54230U 22148A   23102.56994329 -.00000084  00000+0  00000+0 0  9997
2 54230   0.0136 245.7182 0004633  35.0643 288.2211  1.00268577  1711
GALAXY 31 (G-31)        
1 54243U 22153A   23102.57091503  .00000010  00000+0  00000+0 0  9998
2 54243   0.0117 235.2815 0002486  71.3580 338.4054  1.00272752  1496
GALAXY 32 (G-32)        
1 54244U 22153B   23102.10610299 -.00000175  00000+0  00000+0 0  9990
2 54244   0.0449  35.0520 0002933 341.1228 131.0682  1.00270940  1499
GALAXY 35 (G-35)        
1 54741U 22170A   23102.37074979 -.00000154  00000+0  00000+0 0  9996
2 54741   0.0101  39.3488 0003263  27.9242 171.6530  1.00270772  1246
GALAXY 36 (G-36)        
1 54742U 22170B   23102.46489861 -.00000188  00000+0  00000+0 0  9994
2 54742   0.0169 202.4860 0003221 229.0769 207.2084  1.00269224  1128
METEOSAT-12 (MTG-I1)    
1 54743U 22170C   23102.12344878 -.00000034  00000+0  00000+0 0  9996
2 54743   0.7328 304.6832 0003232 106.7413 189.5788  1.00268205  1329
SHIJIAN-23 (SJ-23)      
1 55131U 23002A   23102.12806852  .00000121  00000+0  00000+0 0  9994
2 55131   0.7178  93.4902 0007121 289.7006 242.7472  1.00268989   854
USA 340                 
1 55138U 22144E   23087.53750000  .00000107  00000+0  00000+0 0  9991
2 55138   2.2434  67.9421 0007500 255.8450  86.5605  0.99824013    05
USA 342                 
1 55263U 23008A   23102.70674301  .00000063  00000+0  00000+0 0  9997
2 55263   0.0072  18.8596 0000569  66.7545 238.9779  1.00270277   867
LDPE-3A                 
1 55264U 23008B   23102.47056434 -.00000265  00000+0  00000+0 0  9998
2 55264   0.1354  80.8400 0000798  51.2569 176.7768  1.00957167   164
ELEKTRO-L 4             
1 55506U 23016A   23101.98399327 -.00000060  00000+0  00000+0 0  9995
2 55506   0.4026 288.1371 0002530  42.5736  29.2765  1.00270312   661
CHINASAT 26 (ZX 26)     
1 55686U 23023A   23102.52902686 -.00000357  00000+0  00000+0 0  9990
2 55686   0.0888  72.5339 0003928 351.4673  91.9941  1.00268223   597
LUCH-5X (OLYMP-K 2)     
1 55841U 23031A   23102.48729851  .00000061  00000+0  00000+0 0  9999
2 55841   0.0498 321.1552 0000520 289.3796 183.3208  1.00272551   307
GAOFEN 13-02            
1 55912U 23036A   23101.83243884 -.00000234  00000+0  00000+0 0  9991
2 55912   3.0048 300.8822 0002010 300.9163  44.3107  1.00268794   430
SES-18                  
1 55970U 23038A   23102.54411604  .00000109  00000+0  00000+0 0  9993
2 55970   0.0674 267.2146 0000226  26.5452 321.4114  1.00273966   467
SES-19                  
1 55971U 23038B   23102.54231080  .00000113  00000+0  00000+0 0  9997
2 55971   0.0704 275.9453 0000313 272.4087  64.6277  1.00277190   438
